<?xml version="1.0" encoding="UTF-8"?>
<gpx creator="Wikiloc - https://www.wikiloc.com" version="1.1" xmlns="http://www.topografix.com/GPX/1/1" xmlns:xsi="http://www.w3.org/2001/XMLSchema-instance" xsi:schemaLocation="http://www.topografix.com/GPX/1/1 http://www.topografix.com/GPX/1/1/gpx.xsd">
  <metadata>
    <name>Wikiloc - MATACUCOS SENDERISMO 2026 15km</name>
    <link href="https://www.wikiloc.com/hiking-trails/matacucos-senderismo-15-282159915">
      <text>MATACUCOS SENDERISMO 2026 15km - Wikiloc on Wikiloc</text>
    </link>
    <time>2026-08-26T09:30:46Z</time>
  </metadata>
  <trk>
    <name>MATACUCOS SENDERISMO 2026 15km - Wikiloc</name>
    <cmt></cmt>
    <desc></desc>
    <trkseg>
      <trkpt lat="41.389452" lon="-5.539251">
        <ele>695.289</ele>
        <time>2026-08-26T08:34:51Z</time>
      </trkpt>
      <trkpt lat="41.389457" lon="-5.539732">
        <ele>698.806</ele>
        <time>2026-08-26T08:35:07Z</time>
      </trkpt>
      <trkpt lat="41.389753" lon="-5.540336">
        <ele>698.826</ele>
        <time>2026-08-26T08:35:23Z</time>
      </trkpt>
      <trkpt lat="41.390231" lon="-5.539646">
        <ele>698.409</ele>
        <time>2026-08-26T08:35:39Z</time>
      </trkpt>
      <trkpt lat="41.392049" lon="-5.537811">
        <ele>695.610</ele>
        <time>2026-08-26T08:36:26Z</time>
      </trkpt>
      <trkpt lat="41.392303" lon="-5.537852">
        <ele>695.636</ele>
        <time>2026-08-26T08:36:37Z</time>
      </trkpt>
      <trkpt lat="41.392854" lon="-5.538403">
        <ele>695.620</ele>
        <time>2026-08-26T08:37:24Z</time>
      </trkpt>
      <trkpt lat="41.393076" lon="-5.538336">
        <ele>695.679</ele>
        <time>2026-08-26T08:37:29Z</time>
      </trkpt>
      <trkpt lat="41.395576" lon="-5.536440">
        <ele>695.223</ele>
        <time>2026-08-26T08:38:15Z</time>
      </trkpt>
      <trkpt lat="41.397181" lon="-5.535514">
        <ele>692.857</ele>
        <time>2026-08-26T08:38:42Z</time>
      </trkpt>
      <trkpt lat="41.399265" lon="-5.533127">
        <ele>694.277</ele>
        <time>2026-08-26T08:39:29Z</time>
      </trkpt>
      <trkpt lat="41.399793" lon="-5.532850">
        <ele>695.259</ele>
        <time>2026-08-26T08:39:39Z</time>
      </trkpt>
      <trkpt lat="41.400513" lon="-5.532810">
        <ele>695.233</ele>
        <time>2026-08-26T08:39:51Z</time>
      </trkpt>
      <trkpt lat="41.400678" lon="-5.532719">
        <ele>695.258</ele>
        <time>2026-08-26T08:39:54Z</time>
      </trkpt>
      <trkpt lat="41.400756" lon="-5.530962">
        <ele>691.652</ele>
        <time>2026-08-26T08:40:14Z</time>
      </trkpt>
      <trkpt lat="41.400670" lon="-5.530379">
        <ele>691.017</ele>
        <time>2026-08-26T08:40:21Z</time>
      </trkpt>
      <trkpt lat="41.400485" lon="-5.530255">
        <ele>690.809</ele>
        <time>2026-08-26T08:40:25Z</time>
      </trkpt>
      <trkpt lat="41.400125" lon="-5.530399">
        <ele>691.047</ele>
        <time>2026-08-26T08:40:32Z</time>
      </trkpt>
      <trkpt lat="41.399739" lon="-5.530194">
        <ele>692.073</ele>
        <time>2026-08-26T08:40:40Z</time>
      </trkpt>
      <trkpt lat="41.397479" lon="-5.527771">
        <ele>707.077</ele>
        <time>2026-08-26T08:42:09Z</time>
      </trkpt>
      <trkpt lat="41.397032" lon="-5.526407">
        <ele>717.266</ele>
        <time>2026-08-26T08:43:00Z</time>
      </trkpt>
      <trkpt lat="41.396549" lon="-5.525416">
        <ele>724.630</ele>
        <time>2026-08-26T08:43:42Z</time>
      </trkpt>
      <trkpt lat="41.395983" lon="-5.524880">
        <ele>733.484</ele>
        <time>2026-08-26T08:44:23Z</time>
      </trkpt>
      <trkpt lat="41.395800" lon="-5.524571">
        <ele>736.844</ele>
        <time>2026-08-26T08:44:39Z</time>
      </trkpt>
      <trkpt lat="41.395871" lon="-5.524366">
        <ele>737.826</ele>
        <time>2026-08-26T08:44:46Z</time>
      </trkpt>
      <trkpt lat="41.397040" lon="-5.523486">
        <ele>739.890</ele>
        <time>2026-08-26T08:45:21Z</time>
      </trkpt>
      <trkpt lat="41.398391" lon="-5.522970">
        <ele>739.645</ele>
        <time>2026-08-26T08:45:50Z</time>
      </trkpt>
      <trkpt lat="41.399730" lon="-5.522594">
        <ele>745.847</ele>
        <time>2026-08-26T08:46:25Z</time>
      </trkpt>
      <trkpt lat="41.401179" lon="-5.523646">
        <ele>761.611</ele>
        <time>2026-08-26T08:47:39Z</time>
      </trkpt>
      <trkpt lat="41.401139" lon="-5.524100">
        <ele>765.209</ele>
        <time>2026-08-26T08:48:03Z</time>
      </trkpt>
      <trkpt lat="41.401064" lon="-5.524151">
        <ele>765.246</ele>
        <time>2026-08-26T08:48:07Z</time>
      </trkpt>
      <trkpt lat="41.401011" lon="-5.524058">
        <ele>765.042</ele>
        <time>2026-08-26T08:48:11Z</time>
      </trkpt>
      <trkpt lat="41.401156" lon="-5.523804">
        <ele>765.016</ele>
        <time>2026-08-26T08:48:24Z</time>
      </trkpt>
      <trkpt lat="41.400973" lon="-5.524297">
        <ele>764.825</ele>
        <time>2026-08-26T08:48:44Z</time>
      </trkpt>
      <trkpt lat="41.402043" lon="-5.521829">
        <ele>762.049</ele>
        <time>2026-08-26T08:55:09Z</time>
      </trkpt>
      <trkpt lat="41.402456" lon="-5.521580">
        <ele>761.453</ele>
        <time>2026-08-26T08:55:13Z</time>
      </trkpt>
      <trkpt lat="41.402930" lon="-5.521603">
        <ele>756.453</ele>
        <time>2026-08-26T08:55:17Z</time>
      </trkpt>
      <trkpt lat="41.403230" lon="-5.521973">
        <ele>748.485</ele>
        <time>2026-08-26T08:55:21Z</time>
      </trkpt>
      <trkpt lat="41.403745" lon="-5.523816">
        <ele>742.089</ele>
        <time>2026-08-26T08:55:40Z</time>
      </trkpt>
      <trkpt lat="41.404683" lon="-5.526347">
        <ele>745.629</ele>
        <time>2026-08-26T08:56:19Z</time>
      </trkpt>
      <trkpt lat="41.404941" lon="-5.526531">
        <ele>746.200</ele>
        <time>2026-08-26T08:56:25Z</time>
      </trkpt>
      <trkpt lat="41.406261" lon="-5.525841">
        <ele>743.620</ele>
        <time>2026-08-26T08:56:48Z</time>
      </trkpt>
      <trkpt lat="41.406767" lon="-5.525055">
        <ele>742.609</ele>
        <time>2026-08-26T08:57:00Z</time>
      </trkpt>
      <trkpt lat="41.407276" lon="-5.523975">
        <ele>739.644</ele>
        <time>2026-08-26T08:57:13Z</time>
      </trkpt>
      <trkpt lat="41.408746" lon="-5.522811">
        <ele>738.010</ele>
        <time>2026-08-26T08:57:37Z</time>
      </trkpt>
      <trkpt lat="41.409547" lon="-5.522702">
        <ele>735.244</ele>
        <time>2026-08-26T08:57:48Z</time>
      </trkpt>
      <trkpt lat="41.411555" lon="-5.522694">
        <ele>743.293</ele>
        <time>2026-08-26T08:58:37Z</time>
      </trkpt>
      <trkpt lat="41.413841" lon="-5.523570">
        <ele>755.817</ele>
        <time>2026-08-26T08:59:57Z</time>
      </trkpt>
      <trkpt lat="41.414144" lon="-5.523887">
        <ele>758.881</ele>
        <time>2026-08-26T09:00:09Z</time>
      </trkpt>
      <trkpt lat="41.414453" lon="-5.524511">
        <ele>758.841</ele>
        <time>2026-08-26T09:00:20Z</time>
      </trkpt>
      <trkpt lat="41.415003" lon="-5.524638">
        <ele>756.033</ele>
        <time>2026-08-26T09:00:27Z</time>
      </trkpt>
      <trkpt lat="41.415355" lon="-5.524555">
        <ele>753.297</ele>
        <time>2026-08-26T09:00:31Z</time>
      </trkpt>
      <trkpt lat="41.416247" lon="-5.524067">
        <ele>746.688</ele>
        <time>2026-08-26T09:00:42Z</time>
      </trkpt>
      <trkpt lat="41.417471" lon="-5.523105">
        <ele>741.424</ele>
        <time>2026-08-26T09:01:00Z</time>
      </trkpt>
      <trkpt lat="41.418095" lon="-5.522382">
        <ele>738.826</ele>
        <time>2026-08-26T09:01:11Z</time>
      </trkpt>
      <trkpt lat="41.418336" lon="-5.521818">
        <ele>737.609</ele>
        <time>2026-08-26T09:01:19Z</time>
      </trkpt>
      <trkpt lat="41.418822" lon="-5.521503">
        <ele>736.880</ele>
        <time>2026-08-26T09:01:28Z</time>
      </trkpt>
      <trkpt lat="41.422958" lon="-5.528215">
        <ele>760.616</ele>
        <time>2026-08-26T09:04:32Z</time>
      </trkpt>
      <trkpt lat="41.423635" lon="-5.528647">
        <ele>762.840</ele>
        <time>2026-08-26T09:04:55Z</time>
      </trkpt>
      <trkpt lat="41.426313" lon="-5.529344">
        <ele>764.889</ele>
        <time>2026-08-26T09:05:54Z</time>
      </trkpt>
      <trkpt lat="41.426958" lon="-5.530258">
        <ele>764.893</ele>
        <time>2026-08-26T09:06:11Z</time>
      </trkpt>
      <trkpt lat="41.426989" lon="-5.530564">
        <ele>763.897</ele>
        <time>2026-08-26T09:06:15Z</time>
      </trkpt>
      <trkpt lat="41.425590" lon="-5.532828">
        <ele>771.267</ele>
        <time>2026-08-26T09:07:17Z</time>
      </trkpt>
      <trkpt lat="41.426327" lon="-5.533177">
        <ele>771.469</ele>
        <time>2026-08-26T09:07:33Z</time>
      </trkpt>
      <trkpt lat="41.426459" lon="-5.533402">
        <ele>769.873</ele>
        <time>2026-08-26T09:07:39Z</time>
      </trkpt>
      <trkpt lat="41.426657" lon="-5.533429">
        <ele>769.889</ele>
        <time>2026-08-26T09:07:45Z</time>
      </trkpt>
      <trkpt lat="41.427067" lon="-5.534056">
        <ele>771.006</ele>
        <time>2026-08-26T09:08:03Z</time>
      </trkpt>
      <trkpt lat="41.427534" lon="-5.534409">
        <ele>772.226</ele>
        <time>2026-08-26T09:08:17Z</time>
      </trkpt>
      <trkpt lat="41.428515" lon="-5.535611">
        <ele>771.009</ele>
        <time>2026-08-26T09:09:10Z</time>
      </trkpt>
      <trkpt lat="41.428700" lon="-5.534983">
        <ele>770.290</ele>
        <time>2026-08-26T09:09:28Z</time>
      </trkpt>
      <trkpt lat="41.428622" lon="-5.534983">
        <ele>766.216</ele>
        <time>2026-08-26T09:09:37Z</time>
      </trkpt>
      <trkpt lat="41.428617" lon="-5.534544">
        <ele>765.650</ele>
        <time>2026-08-26T09:09:46Z</time>
      </trkpt>
      <trkpt lat="41.428985" lon="-5.533485">
        <ele>758.489</ele>
        <time>2026-08-26T09:10:03Z</time>
      </trkpt>
      <trkpt lat="41.430208" lon="-5.534304">
        <ele>758.093</ele>
        <time>2026-08-26T09:11:35Z</time>
      </trkpt>
      <trkpt lat="41.430350" lon="-5.534797">
        <ele>754.227</ele>
        <time>2026-08-26T09:11:43Z</time>
      </trkpt>
      <trkpt lat="41.431107" lon="-5.534927">
        <ele>746.867</ele>
        <time>2026-08-26T09:11:55Z</time>
      </trkpt>
      <trkpt lat="41.431385" lon="-5.535093">
        <ele>742.699</ele>
        <time>2026-08-26T09:11:59Z</time>
      </trkpt>
      <trkpt lat="41.431914" lon="-5.535988">
        <ele>734.443</ele>
        <time>2026-08-26T09:12:13Z</time>
      </trkpt>
      <trkpt lat="41.432300" lon="-5.536214">
        <ele>733.826</ele>
        <time>2026-08-26T09:12:25Z</time>
      </trkpt>
      <trkpt lat="41.432830" lon="-5.538570">
        <ele>727.047</ele>
        <time>2026-08-26T09:12:45Z</time>
      </trkpt>
      <trkpt lat="41.433777" lon="-5.541167">
        <ele>707.411</ele>
        <time>2026-08-26T09:13:03Z</time>
      </trkpt>
      <trkpt lat="41.433972" lon="-5.542271">
        <ele>696.409</ele>
        <time>2026-08-26T09:13:10Z</time>
      </trkpt>
      <trkpt lat="41.434286" lon="-5.542786">
        <ele>689.614</ele>
        <time>2026-08-26T09:13:15Z</time>
      </trkpt>
      <trkpt lat="41.434520" lon="-5.543577">
        <ele>683.870</ele>
        <time>2026-08-26T09:13:22Z</time>
      </trkpt>
      <trkpt lat="41.434976" lon="-5.545318">
        <ele>678.864</ele>
        <time>2026-08-26T09:13:39Z</time>
      </trkpt>
      <trkpt lat="41.435060" lon="-5.546330">
        <ele>675.863</ele>
        <time>2026-08-26T09:13:50Z</time>
      </trkpt>
      <trkpt lat="41.435380" lon="-5.547064">
        <ele>675.427</ele>
        <time>2026-08-26T09:14:00Z</time>
      </trkpt>
      <trkpt lat="41.435485" lon="-5.547625">
        <ele>675.291</ele>
        <time>2026-08-26T09:14:07Z</time>
      </trkpt>
      <trkpt lat="41.435388" lon="-5.547767">
        <ele>675.291</ele>
        <time>2026-08-26T09:14:10Z</time>
      </trkpt>
      <trkpt lat="41.434990" lon="-5.547905">
        <ele>675.093</ele>
        <time>2026-08-26T09:14:17Z</time>
      </trkpt>
      <trkpt lat="41.434095" lon="-5.548091">
        <ele>674.827</ele>
        <time>2026-08-26T09:14:33Z</time>
      </trkpt>
      <trkpt lat="41.433184" lon="-5.547342">
        <ele>674.896</ele>
        <time>2026-08-26T09:14:52Z</time>
      </trkpt>
      <trkpt lat="41.432806" lon="-5.547254">
        <ele>675.231</ele>
        <time>2026-08-26T09:14:59Z</time>
      </trkpt>
      <trkpt lat="41.431317" lon="-5.547942">
        <ele>675.224</ele>
        <time>2026-08-26T09:15:27Z</time>
      </trkpt>
      <trkpt lat="41.430230" lon="-5.547243">
        <ele>675.809</ele>
        <time>2026-08-26T09:15:49Z</time>
      </trkpt>
      <trkpt lat="41.428659" lon="-5.547509">
        <ele>677.451</ele>
        <time>2026-08-26T09:16:22Z</time>
      </trkpt>
      <trkpt lat="41.427747" lon="-5.547108">
        <ele>677.817</ele>
        <time>2026-08-26T09:16:41Z</time>
      </trkpt>
      <trkpt lat="41.426871" lon="-5.546396">
        <ele>678.461</ele>
        <time>2026-08-26T09:17:02Z</time>
      </trkpt>
      <trkpt lat="41.424337" lon="-5.545887">
        <ele>679.460</ele>
        <time>2026-08-26T09:17:51Z</time>
      </trkpt>
      <trkpt lat="41.420910" lon="-5.541803">
        <ele>684.284</ele>
        <time>2026-08-26T09:19:15Z</time>
      </trkpt>
      <trkpt lat="41.420227" lon="-5.541342">
        <ele>684.698</ele>
        <time>2026-08-26T09:19:29Z</time>
      </trkpt>
      <trkpt lat="41.418658" lon="-5.540662">
        <ele>686.658</ele>
        <time>2026-08-26T09:19:59Z</time>
      </trkpt>
      <trkpt lat="41.416457" lon="-5.538418">
        <ele>688.040</ele>
        <time>2026-08-26T09:20:49Z</time>
      </trkpt>
      <trkpt lat="41.415417" lon="-5.538069">
        <ele>687.484</ele>
        <time>2026-08-26T09:21:07Z</time>
      </trkpt>
      <trkpt lat="41.413742" lon="-5.538171">
        <ele>686.873</ele>
        <time>2026-08-26T09:21:37Z</time>
      </trkpt>
      <trkpt lat="41.413299" lon="-5.538050">
        <ele>687.285</ele>
        <time>2026-08-26T09:21:45Z</time>
      </trkpt>
      <trkpt lat="41.410367" lon="-5.536227">
        <ele>687.813</ele>
        <time>2026-08-26T09:22:43Z</time>
      </trkpt>
      <trkpt lat="41.410166" lon="-5.535948">
        <ele>687.809</ele>
        <time>2026-08-26T09:22:48Z</time>
      </trkpt>
      <trkpt lat="41.409964" lon="-5.535139">
        <ele>688.469</ele>
        <time>2026-08-26T09:22:59Z</time>
      </trkpt>
      <trkpt lat="41.409508" lon="-5.534539">
        <ele>688.645</ele>
        <time>2026-08-26T09:23:10Z</time>
      </trkpt>
      <trkpt lat="41.406527" lon="-5.533543">
        <ele>690.459</ele>
        <time>2026-08-26T09:24:12Z</time>
      </trkpt>
      <trkpt lat="41.404335" lon="-5.533398">
        <ele>693.858</ele>
        <time>2026-08-26T09:25:00Z</time>
      </trkpt>
      <trkpt lat="41.402927" lon="-5.533015">
        <ele>694.612</ele>
        <time>2026-08-26T09:25:32Z</time>
      </trkpt>
      <trkpt lat="41.401783" lon="-5.532864">
        <ele>696.836</ele>
        <time>2026-08-26T09:25:57Z</time>
      </trkpt>
      <trkpt lat="41.399823" lon="-5.532859">
        <ele>697.076</ele>
        <time>2026-08-26T09:26:39Z</time>
      </trkpt>
      <trkpt lat="41.399171" lon="-5.533245">
        <ele>697.878</ele>
        <time>2026-08-26T09:26:54Z</time>
      </trkpt>
      <trkpt lat="41.397194" lon="-5.535547">
        <ele>696.452</ele>
        <time>2026-08-26T09:27:43Z</time>
      </trkpt>
      <trkpt lat="41.395533" lon="-5.536482">
        <ele>696.683</ele>
        <time>2026-08-26T09:28:17Z</time>
      </trkpt>
      <trkpt lat="41.393116" lon="-5.538324">
        <ele>698.825</ele>
        <time>2026-08-26T09:29:16Z</time>
      </trkpt>
      <trkpt lat="41.392818" lon="-5.538387">
        <ele>699.217</ele>
        <time>2026-08-26T09:29:23Z</time>
      </trkpt>
      <trkpt lat="41.392007" lon="-5.537337">
        <ele>697.609</ele>
        <time>2026-08-26T09:29:45Z</time>
      </trkpt>
      <trkpt lat="41.390422" lon="-5.539043">
        <ele>698.410</ele>
        <time>2026-08-26T09:30:28Z</time>
      </trkpt>
      <trkpt lat="41.390301" lon="-5.539029">
        <ele>698.816</ele>
        <time>2026-08-26T09:30:31Z</time>
      </trkpt>
      <trkpt lat="41.389792" lon="-5.538466">
        <ele>699.410</ele>
        <time>2026-08-26T09:30:46Z</time>
      </trkpt>
    </trkseg>
  </trk></gpx>