<?xml version="1.0" encoding="UTF-8"?>
<gpx xmlns="http://www.topografix.com/GPX/1/1"
     xmlns:xsi="http://www.w3.org/2001/XMLSchema-instance"
     xsi:schemaLocation="http://www.topografix.com/GPX/1/1 http://www.topografix.com/GPX/1/1/gpx.xsd"
     version="1.1"
     creator="GoogleMapsToGPX">
  <metadata>
    <name>Google Maps Route</name>
    <time>2026-09-26T09:09:14.985Z</time>
  </metadata>
  <trk>
    <name>Google Maps Route</name>
    <trkseg>
      <trkpt lat="41.3946800" lon="-5.5372100">
      </trkpt>
      <trkpt lat="41.3946600" lon="-5.5371600">
      </trkpt>
      <trkpt lat="41.3951300" lon="-5.5367900">
      </trkpt>
      <trkpt lat="41.3952900" lon="-5.5366700">
      </trkpt>
      <trkpt lat="41.3953900" lon="-5.5366000">
      </trkpt>
      <trkpt lat="41.3956100" lon="-5.5364600">
      </trkpt>
      <trkpt lat="41.3957700" lon="-5.5363600">
      </trkpt>
      <trkpt lat="41.3959400" lon="-5.5362500">
      </trkpt>
      <trkpt lat="41.3961000" lon="-5.5361800">
      </trkpt>
      <trkpt lat="41.3962700" lon="-5.5361000">
      </trkpt>
      <trkpt lat="41.3964700" lon="-5.5360100">
      </trkpt>
      <trkpt lat="41.3966100" lon="-5.5359300">
      </trkpt>
      <trkpt lat="41.3967700" lon="-5.5358300">
      </trkpt>
      <trkpt lat="41.3968800" lon="-5.5357700">
      </trkpt>
      <trkpt lat="41.3969300" lon="-5.5357300">
      </trkpt>
      <trkpt lat="41.3970900" lon="-5.5356100">
      </trkpt>
      <trkpt lat="41.3972500" lon="-5.5355000">
      </trkpt>
      <trkpt lat="41.3975300" lon="-5.5352000">
      </trkpt>
      <trkpt lat="41.3975500" lon="-5.5351900">
      </trkpt>
      <trkpt lat="41.3976600" lon="-5.5350300">
      </trkpt>
      <trkpt lat="41.3977900" lon="-5.5348600">
      </trkpt>
      <trkpt lat="41.3978200" lon="-5.5348200">
      </trkpt>
      <trkpt lat="41.3980400" lon="-5.5345200">
      </trkpt>
      <trkpt lat="41.3981000" lon="-5.5344400">
      </trkpt>
      <trkpt lat="41.3982800" lon="-5.5342300">
      </trkpt>
      <trkpt lat="41.3983100" lon="-5.5342000">
      </trkpt>
      <trkpt lat="41.3985700" lon="-5.5338900">
      </trkpt>
      <trkpt lat="41.3989200" lon="-5.5335200">
      </trkpt>
      <trkpt lat="41.3990000" lon="-5.5334400">
      </trkpt>
      <trkpt lat="41.3991400" lon="-5.5332800">
      </trkpt>
      <trkpt lat="41.3991700" lon="-5.5332500">
      </trkpt>
      <trkpt lat="41.3992800" lon="-5.5331400">
      </trkpt>
      <trkpt lat="41.3993300" lon="-5.5331000">
      </trkpt>
      <trkpt lat="41.3994400" lon="-5.5330400">
      </trkpt>
      <trkpt lat="41.3995300" lon="-5.5329900">
      </trkpt>
      <trkpt lat="41.3996900" lon="-5.5329200">
      </trkpt>
      <trkpt lat="41.3997800" lon="-5.5328800">
      </trkpt>
      <trkpt lat="41.3999700" lon="-5.5328400">
      </trkpt>
      <trkpt lat="41.4001400" lon="-5.5328300">
      </trkpt>
      <trkpt lat="41.4006600" lon="-5.5328500">
      </trkpt>
      <trkpt lat="41.4007000" lon="-5.5320400">
      </trkpt>
      <trkpt lat="41.4007100" lon="-5.5318900">
      </trkpt>
      <trkpt lat="41.4007200" lon="-5.5315200">
      </trkpt>
      <trkpt lat="41.4007200" lon="-5.5314100">
      </trkpt>
      <trkpt lat="41.4007300" lon="-5.5311700">
      </trkpt>
      <trkpt lat="41.4007300" lon="-5.5310100">
      </trkpt>
      <trkpt lat="41.4007200" lon="-5.5308200">
      </trkpt>
      <trkpt lat="41.4007100" lon="-5.5307000">
      </trkpt>
      <trkpt lat="41.4006900" lon="-5.5306200">
      </trkpt>
      <trkpt lat="41.4006700" lon="-5.5305300">
      </trkpt>
      <trkpt lat="41.4005900" lon="-5.5302700">
      </trkpt>
      <trkpt lat="41.4005100" lon="-5.5303300">
      </trkpt>
      <trkpt lat="41.4003700" lon="-5.5304000">
      </trkpt>
      <trkpt lat="41.4003200" lon="-5.5304100">
      </trkpt>
      <trkpt lat="41.4002100" lon="-5.5304400">
      </trkpt>
      <trkpt lat="41.4001200" lon="-5.5304400">
      </trkpt>
      <trkpt lat="41.4000700" lon="-5.5304300">
      </trkpt>
      <trkpt lat="41.4000400" lon="-5.5304300">
      </trkpt>
      <trkpt lat="41.3999700" lon="-5.5303900">
      </trkpt>
      <trkpt lat="41.3998000" lon="-5.5302800">
      </trkpt>
      <trkpt lat="41.3997400" lon="-5.5302300">
      </trkpt>
      <trkpt lat="41.3996000" lon="-5.5301000">
      </trkpt>
      <trkpt lat="41.3995900" lon="-5.5300900">
      </trkpt>
      <trkpt lat="41.3993200" lon="-5.5297900">
      </trkpt>
      <trkpt lat="41.3992800" lon="-5.5297400">
      </trkpt>
      <trkpt lat="41.3991800" lon="-5.5296400">
      </trkpt>
      <trkpt lat="41.3990400" lon="-5.5294900">
      </trkpt>
      <trkpt lat="41.3989000" lon="-5.5293400">
      </trkpt>
      <trkpt lat="41.3988600" lon="-5.5292900">
      </trkpt>
      <trkpt lat="41.3987600" lon="-5.5291900">
      </trkpt>
      <trkpt lat="41.3986200" lon="-5.5290400">
      </trkpt>
      <trkpt lat="41.3984100" lon="-5.5288000">
      </trkpt>
      <trkpt lat="41.3983400" lon="-5.5287300">
      </trkpt>
      <trkpt lat="41.3982000" lon="-5.5285800">
      </trkpt>
      <trkpt lat="41.3979200" lon="-5.5282800">
      </trkpt>
      <trkpt lat="41.3978400" lon="-5.5281900">
      </trkpt>
      <trkpt lat="41.3976200" lon="-5.5279900">
      </trkpt>
      <trkpt lat="41.3975200" lon="-5.5278800">
      </trkpt>
      <trkpt lat="41.3974900" lon="-5.5278200">
      </trkpt>
      <trkpt lat="41.3974600" lon="-5.5277800">
      </trkpt>
      <trkpt lat="41.3973800" lon="-5.5276300">
      </trkpt>
      <trkpt lat="41.3973600" lon="-5.5275900">
      </trkpt>
      <trkpt lat="41.3973000" lon="-5.5274500">
      </trkpt>
      <trkpt lat="41.3972900" lon="-5.5274200">
      </trkpt>
      <trkpt lat="41.3972300" lon="-5.5272000">
      </trkpt>
      <trkpt lat="41.3971900" lon="-5.5270600">
      </trkpt>
      <trkpt lat="41.3971700" lon="-5.5269700">
      </trkpt>
      <trkpt lat="41.3971100" lon="-5.5267500">
      </trkpt>
      <trkpt lat="41.3970700" lon="-5.5266000">
      </trkpt>
      <trkpt lat="41.3970000" lon="-5.5264000">
      </trkpt>
      <trkpt lat="41.3969600" lon="-5.5263100">
      </trkpt>
      <trkpt lat="41.3968700" lon="-5.5261100">
      </trkpt>
      <trkpt lat="41.3968600" lon="-5.5261000">
      </trkpt>
      <trkpt lat="41.3967600" lon="-5.5259100">
      </trkpt>
      <trkpt lat="41.3967500" lon="-5.5258800">
      </trkpt>
      <trkpt lat="41.3965700" lon="-5.5255600">
      </trkpt>
      <trkpt lat="41.3965500" lon="-5.5255200">
      </trkpt>
      <trkpt lat="41.3964900" lon="-5.5254200">
      </trkpt>
      <trkpt lat="41.3964300" lon="-5.5253400">
      </trkpt>
      <trkpt lat="41.3962200" lon="-5.5251300">
      </trkpt>
      <trkpt lat="41.3961400" lon="-5.5250600">
      </trkpt>
      <trkpt lat="41.3960000" lon="-5.5249200">
      </trkpt>
      <trkpt lat="41.3959600" lon="-5.5248800">
      </trkpt>
      <trkpt lat="41.3958700" lon="-5.5247700">
      </trkpt>
      <trkpt lat="41.3958600" lon="-5.5247600">
      </trkpt>
      <trkpt lat="41.3958100" lon="-5.5246900">
      </trkpt>
      <trkpt lat="41.3957700" lon="-5.5246000">
      </trkpt>
      <trkpt lat="41.3957300" lon="-5.5245100">
      </trkpt>
      <trkpt lat="41.3960400" lon="-5.5242600">
      </trkpt>
      <trkpt lat="41.3961300" lon="-5.5241900">
      </trkpt>
      <trkpt lat="41.3961900" lon="-5.5241400">
      </trkpt>
      <trkpt lat="41.3962900" lon="-5.5240600">
      </trkpt>
      <trkpt lat="41.3963500" lon="-5.5240200">
      </trkpt>
      <trkpt lat="41.3965000" lon="-5.5239000">
      </trkpt>
      <trkpt lat="41.3966300" lon="-5.5237900">
      </trkpt>
      <trkpt lat="41.3966600" lon="-5.5237700">
      </trkpt>
      <trkpt lat="41.3968100" lon="-5.5236500">
      </trkpt>
      <trkpt lat="41.3968700" lon="-5.5236000">
      </trkpt>
      <trkpt lat="41.3969800" lon="-5.5235500">
      </trkpt>
      <trkpt lat="41.3971100" lon="-5.5234800">
      </trkpt>
      <trkpt lat="41.3971400" lon="-5.5234700">
      </trkpt>
      <trkpt lat="41.3973100" lon="-5.5233900">
      </trkpt>
      <trkpt lat="41.3973400" lon="-5.5233800">
      </trkpt>
      <trkpt lat="41.3974900" lon="-5.5233200">
      </trkpt>
      <trkpt lat="41.3976600" lon="-5.5232600">
      </trkpt>
      <trkpt lat="41.3976800" lon="-5.5232500">
      </trkpt>
      <trkpt lat="41.3978300" lon="-5.5231900">
      </trkpt>
      <trkpt lat="41.3980100" lon="-5.5231300">
      </trkpt>
      <trkpt lat="41.3980900" lon="-5.5231000">
      </trkpt>
      <trkpt lat="41.3985300" lon="-5.5229600">
      </trkpt>
      <trkpt lat="41.3985600" lon="-5.5229600">
      </trkpt>
      <trkpt lat="41.3987100" lon="-5.5229100">
      </trkpt>
      <trkpt lat="41.3988800" lon="-5.5228500">
      </trkpt>
      <trkpt lat="41.3990600" lon="-5.5227900">
      </trkpt>
      <trkpt lat="41.3992300" lon="-5.5227400">
      </trkpt>
      <trkpt lat="41.3992700" lon="-5.5227200">
      </trkpt>
      <trkpt lat="41.3995800" lon="-5.5226100">
      </trkpt>
      <trkpt lat="41.3996100" lon="-5.5226000">
      </trkpt>
      <trkpt lat="41.3997000" lon="-5.5225700">
      </trkpt>
      <trkpt lat="41.3998500" lon="-5.5226900">
      </trkpt>
      <trkpt lat="41.4000000" lon="-5.5228100">
      </trkpt>
      <trkpt lat="41.4000800" lon="-5.5228700">
      </trkpt>
      <trkpt lat="41.4001600" lon="-5.5229400">
      </trkpt>
      <trkpt lat="41.4003200" lon="-5.5230500">
      </trkpt>
      <trkpt lat="41.4004700" lon="-5.5231700">
      </trkpt>
      <trkpt lat="41.4006300" lon="-5.5232900">
      </trkpt>
      <trkpt lat="41.4009400" lon="-5.5235200">
      </trkpt>
      <trkpt lat="41.4009400" lon="-5.5235300">
      </trkpt>
      <trkpt lat="41.4010500" lon="-5.5235900">
      </trkpt>
      <trkpt lat="41.4010900" lon="-5.5236000">
      </trkpt>
      <trkpt lat="41.4011100" lon="-5.5236000">
      </trkpt>
      <trkpt lat="41.4011200" lon="-5.5236000">
      </trkpt>
    </trkseg>
  </trk>
</gpx>